[{"OBJECT_NAME":"STARLINK-3877","OBJECT_ID":"2022-045AA","EPOCH":"2026-01-28T22:40:38.404416","MEAN_MOTION":15.08837728,"ECCENTRICITY":0.00014575,"INCLINATION":53.2184,"RA_OF_ASC_NODE":17.5437,"ARG_OF_PERICENTER":89.7261,"MEAN_ANOMALY":270.3898,"EPHEMERIS_TYPE":0,"CLASSIFICATION_TYPE":"U","NORAD_CAT_ID":52355,"ELEMENT_SET_NO":999,"REV_AT_EPOCH":20978,"BSTAR":0.00031945864,"MEAN_MOTION_DOT":4.8e-5,"MEAN_MOTION_DDOT":0},{"OBJECT_NAME":"STARLINK-3801","OBJECT_ID":"2022-045AB","EPOCH":"2026-01-28T03:20:07.287936","MEAN_MOTION":15.08833311,"ECCENTRICITY":0.00012895,"INCLINATION":53.2191,"RA_OF_ASC_NODE":21.19,"ARG_OF_PERICENTER":98.1036,"MEAN_ANOMALY":262.0102,"EPHEMERIS_TYPE":0,"CLASSIFICATION_TYPE":"U","NORAD_CAT_ID":52356,"ELEMENT_SET_NO":999,"REV_AT_EPOCH":20966,"BSTAR":2.0758662e-5,"MEAN_MOTION_DOT":4.2e-7,"MEAN_MOTION_DDOT":0},{"OBJECT_NAME":"STARLINK-3821","OBJECT_ID":"2022-045AC","EPOCH":"2026-01-28T16:08:29.865696","MEAN_MOTION":15.08836451,"ECCENTRICITY":0.00012073,"INCLINATION":53.2183,"RA_OF_ASC_NODE":18.7663,"ARG_OF_PERICENTER":93.9691,"MEAN_ANOMALY":266.1439,"EPHEMERIS_TYPE":0,"CLASSIFICATION_TYPE":"U","NORAD_CAT_ID":52357,"ELEMENT_SET_NO":999,"REV_AT_EPOCH":20974,"BSTAR":0.00011604544,"MEAN_MOTION_DOT":1.559e-5,"MEAN_MOTION_DDOT":0},{"OBJECT_NAME":"STARLINK-3837","OBJECT_ID":"2022-045AD","EPOCH":"2026-01-28T23:38:55.693248","MEAN_MOTION":15.08839519,"ECCENTRICITY":0.00013436,"INCLINATION":53.2187,"RA_OF_ASC_NODE":17.3593,"ARG_OF_PERICENTER":86.2897,"MEAN_ANOMALY":273.8248,"EPHEMERIS_TYPE":0,"CLASSIFICATION_TYPE":"U","NORAD_CAT_ID":52358,"ELEMENT_SET_NO":999,"REV_AT_EPOCH":20979,"BSTAR":-1.4732414e-5,"MEAN_MOTION_DOT":-5.22e-6,"MEAN_MOTION_DDOT":0},{"OBJECT_NAME":"STARLINK-3853","OBJECT_ID":"2022-045AE","EPOCH":"2026-01-28T16:04:34.736736","MEAN_MOTION":15.08827393,"ECCENTRICITY":0.00013943,"INCLINATION":53.2195,"RA_OF_ASC_NODE":18.7873,"ARG_OF_PERICENTER":98.1243,"MEAN_ANOMALY":261.9908,"EPHEMERIS_TYPE":0,"CLASSIFICATION_TYPE":"U","NORAD_CAT_ID":52359,"ELEMENT_SET_NO":999,"REV_AT_EPOCH":20974,"BSTAR":-4.1389944e-5,"MEAN_MOTION_DOT":-9.46e-6,"MEAN_MOTION_DDOT":0},{"OBJECT_NAME":"STARLINK-3728","OBJECT_ID":"2022-045AG","EPOCH":"2026-01-28T15:52:36.171264","MEAN_MOTION":15.08836371,"ECCENTRICITY":0.00013357,"INCLINATION":53.2196,"RA_OF_ASC_NODE":18.8127,"ARG_OF_PERICENTER":89.5868,"MEAN_ANOMALY":270.5277,"EPHEMERIS_TYPE":0,"CLASSIFICATION_TYPE":"U","NORAD_CAT_ID":52361,"ELEMENT_SET_NO":999,"REV_AT_EPOCH":20974,"BSTAR":4.8190046e-5,"MEAN_MOTION_DOT":4.79e-6,"MEAN_MOTION_DDOT":0},{"OBJECT_NAME":"STARLINK-3848","OBJECT_ID":"2022-045AH","EPOCH":"2026-01-28T23:24:21.405600","MEAN_MOTION":15.08837062,"ECCENTRICITY":0.0001155,"INCLINATION":53.2194,"RA_OF_ASC_NODE":7.4034,"ARG_OF_PERICENTER":87.4712,"MEAN_ANOMALY":272.6413,"EPHEMERIS_TYPE":0,"CLASSIFICATION_TYPE":"U","NORAD_CAT_ID":52362,"ELEMENT_SET_NO":999,"REV_AT_EPOCH":20992,"BSTAR":5.0030017e-5,"MEAN_MOTION_DOT":5.08e-6,"MEAN_MOTION_DDOT":0},{"OBJECT_NAME":"STARLINK-3830","OBJECT_ID":"2022-045AJ","EPOCH":"2026-01-28T23:44:14.002944","MEAN_MOTION":15.08835662,"ECCENTRICITY":0.00018051,"INCLINATION":53.2196,"RA_OF_ASC_NODE":17.3427,"ARG_OF_PERICENTER":98.4909,"MEAN_ANOMALY":261.6288,"EPHEMERIS_TYPE":0,"CLASSIFICATION_TYPE":"U","NORAD_CAT_ID":52363,"ELEMENT_SET_NO":999,"REV_AT_EPOCH":20979,"BSTAR":6.0257255e-5,"MEAN_MOTION_DOT":6.71e-6,"MEAN_MOTION_DDOT":0},{"OBJECT_NAME":"STARLINK-3820","OBJECT_ID":"2022-045AK","EPOCH":"2026-01-28T23:03:08.654112","MEAN_MOTION":15.08834676,"ECCENTRICITY":0.00012805,"INCLINATION":53.2197,"RA_OF_ASC_NODE":7.3847,"ARG_OF_PERICENTER":91.2319,"MEAN_ANOMALY":268.882,"EPHEMERIS_TYPE":0,"CLASSIFICATION_TYPE":"U","NORAD_CAT_ID":52364,"ELEMENT_SET_NO":999,"REV_AT_EPOCH":20992,"BSTAR":-3.891955e-5,"MEAN_MOTION_DOT":-9.07e-6,"MEAN_MOTION_DDOT":0},{"OBJECT_NAME":"STARLINK-3874","OBJECT_ID":"2022-045AL","EPOCH":"2026-01-28T23:34:57.573120","MEAN_MOTION":15.08834844,"ECCENTRICITY":0.00014422,"INCLINATION":53.2191,"RA_OF_ASC_NODE":7.3765,"ARG_OF_PERICENTER":96.3712,"MEAN_ANOMALY":263.7444,"EPHEMERIS_TYPE":0,"CLASSIFICATION_TYPE":"U","NORAD_CAT_ID":52365,"ELEMENT_SET_NO":999,"REV_AT_EPOCH":20992,"BSTAR":-2.2350818e-5,"MEAN_MOTION_DOT":-6.44e-6,"MEAN_MOTION_DDOT":0},{"OBJECT_NAME":"STARLINK-3808","OBJECT_ID":"2022-045AM","EPOCH":"2026-01-28T23:08:27.133152","MEAN_MOTION":15.08841756,"ECCENTRICITY":0.00015147,"INCLINATION":53.2176,"RA_OF_ASC_NODE":7.4531,"ARG_OF_PERICENTER":92.322,"MEAN_ANOMALY":267.7945,"EPHEMERIS_TYPE":0,"CLASSIFICATION_TYPE":"U","NORAD_CAT_ID":52366,"ELEMENT_SET_NO":999,"REV_AT_EPOCH":20992,"BSTAR":6.9215102e-5,"MEAN_MOTION_DOT":8.14e-6,"MEAN_MOTION_DDOT":0},{"OBJECT_NAME":"STARLINK-3817","OBJECT_ID":"2022-045AN","EPOCH":"2026-01-28T15:22:07.913568","MEAN_MOTION":15.08837854,"ECCENTRICITY":0.0001378,"INCLINATION":53.22,"RA_OF_ASC_NODE":8.9088,"ARG_OF_PERICENTER":96.0954,"MEAN_ANOMALY":264.0196,"EPHEMERIS_TYPE":0,"CLASSIFICATION_TYPE":"U","NORAD_CAT_ID":52367,"ELEMENT_SET_NO":999,"REV_AT_EPOCH":20987,"BSTAR":8.49447e-6,"MEAN_MOTION_DOT":-1.53e-6,"MEAN_MOTION_DDOT":0},{"OBJECT_NAME":"STARLINK-3834","OBJECT_ID":"2022-045AP","EPOCH":"2026-01-28T22:52:32.854656","MEAN_MOTION":15.08847577,"ECCENTRICITY":0.00014914,"INCLINATION":53.22,"RA_OF_ASC_NODE":7.5052,"ARG_OF_PERICENTER":92.4836,"MEAN_ANOMALY":267.6327,"EPHEMERIS_TYPE":0,"CLASSIFICATION_TYPE":"U","NORAD_CAT_ID":52368,"ELEMENT_SET_NO":999,"REV_AT_EPOCH":20991,"BSTAR":8.2914734e-5,"MEAN_MOTION_DOT":1.032e-5,"MEAN_MOTION_DDOT":0},{"OBJECT_NAME":"STARLINK-3841","OBJECT_ID":"2022-045AQ","EPOCH":"2026-01-28T23:13:45.466176","MEAN_MOTION":15.08836186,"ECCENTRICITY":0.00016555,"INCLINATION":53.2197,"RA_OF_ASC_NODE":7.4402,"ARG_OF_PERICENTER":104.1939,"MEAN_ANOMALY":255.9238,"EPHEMERIS_TYPE":0,"CLASSIFICATION_TYPE":"U","NORAD_CAT_ID":52369,"ELEMENT_SET_NO":999,"REV_AT_EPOCH":20992,"BSTAR":0.00010863183,"MEAN_MOTION_DOT":1.441e-5,"MEAN_MOTION_DDOT":0},{"OBJECT_NAME":"STARLINK-3827","OBJECT_ID":"2022-045AR","EPOCH":"2026-01-28T23:04:32.468160","MEAN_MOTION":15.08840035,"ECCENTRICITY":0.00015115,"INCLINATION":53.2209,"RA_OF_ASC_NODE":7.4792,"ARG_OF_PERICENTER":88.7223,"MEAN_ANOMALY":271.3942,"EPHEMERIS_TYPE":0,"CLASSIFICATION_TYPE":"U","NORAD_CAT_ID":52370,"ELEMENT_SET_NO":999,"REV_AT_EPOCH":20992,"BSTAR":-1.8608741e-5,"MEAN_MOTION_DOT":-5.84e-6,"MEAN_MOTION_DDOT":0},{"OBJECT_NAME":"STARLINK-3798","OBJECT_ID":"2022-045AS","EPOCH":"2026-01-28T22:59:13.905312","MEAN_MOTION":15.08837491,"ECCENTRICITY":0.00015178,"INCLINATION":53.2204,"RA_OF_ASC_NODE":7.4967,"ARG_OF_PERICENTER":89.2733,"MEAN_ANOMALY":270.8433,"EPHEMERIS_TYPE":0,"CLASSIFICATION_TYPE":"U","NORAD_CAT_ID":52371,"ELEMENT_SET_NO":999,"REV_AT_EPOCH":20991,"BSTAR":7.0634159e-5,"MEAN_MOTION_DOT":8.36e-6,"MEAN_MOTION_DDOT":0}]
