STARLINK-3877           
1 52355U 22045AA  26028.94488894  .00004800  00000+0  31946-3 0  9992
2 52355  53.2184  17.5437 0001457  89.7261 270.3898 15.08837728209784
STARLINK-3801           
1 52356U 22045AB  26028.13897324  .00000042  00000+0  20759-4 0  9991
2 52356  53.2191  21.1900 0001289  98.1036 262.0102 15.08833311209663
STARLINK-3821           
1 52357U 22045AC  26028.67256789  .00001559  00000+0  11605-3 0  9998
2 52357  53.2183  18.7663 0001207  93.9691 266.1439 15.08836451209748
STARLINK-3837           
1 52358U 22045AD  26028.98536682 -.00000522  00000+0 -14732-4 0  9992
2 52358  53.2187  17.3593 0001343  86.2897 273.8248 15.08839519209790
STARLINK-3853           
1 52359U 22045AE  26028.66984649 -.00000946  00000+0 -41390-4 0  9998
2 52359  53.2195  18.7873 0001394  98.1243 261.9908 15.08827393209742
STARLINK-3728           
1 52361U 22045AG  26028.66152976  .00000479  00000+0  48190-4 0  9995
2 52361  53.2196  18.8127 0001335  89.5868 270.5277 15.08836371209742
STARLINK-3848           
1 52362U 22045AH  26028.97524775  .00000508  00000+0  50030-4 0  9999
2 52362  53.2194   7.4034 0001155  87.4712 272.6413 15.08837062209920
STARLINK-3830           
1 52363U 22045AJ  26028.98905096  .00000671  00000+0  60257-4 0  9993
2 52363  53.2196  17.3427 0001805  98.4909 261.6288 15.08835662209798
STARLINK-3820           
1 52364U 22045AK  26028.96051683 -.00000907  00000+0 -38920-4 0  9992
2 52364  53.2197   7.3847 0001280  91.2319 268.8820 15.08834676209928
STARLINK-3874           
1 52365U 22045AL  26028.98261080 -.00000644  00000+0 -22351-4 0  9998
2 52365  53.2191   7.3765 0001442  96.3712 263.7444 15.08834844209928
STARLINK-3808           
1 52366U 22045AM  26028.96420293  .00000814  00000+0  69215-4 0  9997
2 52366  53.2176   7.4531 0001514  92.3220 267.7945 15.08841756209924
STARLINK-3817           
1 52367U 22045AN  26028.64036937 -.00000153  00000+0  84945-5 0  9996
2 52367  53.2200   8.9088 0001378  96.0954 264.0196 15.08837854209875
STARLINK-3834           
1 52368U 22045AP  26028.95315804  .00001032  00000+0  82915-4 0  9994
2 52368  53.2200   7.5052 0001491  92.4836 267.6327 15.08847577209910
STARLINK-3841           
1 52369U 22045AQ  26028.96788734  .00001441  00000+0  10863-3 0  9998
2 52369  53.2197   7.4402 0001655 104.1939 255.9238 15.08836186209927
STARLINK-3827           
1 52370U 22045AR  26028.96148690 -.00000584  00000+0 -18609-4 0  9997
2 52370  53.2209   7.4792 0001511  88.7223 271.3942 15.08840035209921
STARLINK-3798           
1 52371U 22045AS  26028.95779983  .00000836  00000+0  70634-4 0  9996
2 52371  53.2204   7.4967 0001517  89.2733 270.8433 15.08837491209919
